SL-14 R/B               
1 20262U 89080C   25295.21503358  .00000307  00000+0  83945-4 0  9999
2 20262  82.5892 262.0903 1231347 141.2630 228.3638 12.50365129642848
DELTA 1 R/B             
1 20323U 89089B   25295.17936419  .00000554  00000+0  14624-3 0  9990
2 20323  97.0813 159.5751 0068598 199.1828 160.6786 14.50509392875650
ARIANE 40 R/B           
1 20443U 90005H   25295.17320883  .00000527  00000+0  18175-3 0  9990
2 20443  98.3315 354.7907 0008972 260.0914  99.9261 14.39739326872872
DELTA 2 R/B(1)          
1 20453U 90008B   25294.46439340  .00040906  00000+0  75230-3 0  9994
2 20453  35.6087 356.8854 0119209  62.6570 298.6238 15.40623705904556
COSMOS 2058             
1 20465U 90010A   25295.14182338  .00004953  00000+0  30351-3 0  9995
2 20465  82.4725 183.7717 0011075  85.5720 274.6774 15.09918894921320
SL-14 R/B               
1 20466U 90010B   25295.00928590  .00000833  00000+0  98362-4 0  9999
2 20466  82.5051  37.6168 0020788  40.3484 319.9268 14.83399823907925
SL-14 R/B               
1 20511U 90018B   25295.16375525  .00000683  00000+0  83032-4 0  9990
2 20511  82.5237 352.5717 0016359 182.8212 177.2913 14.81976628902065
HST                     
1 20580U 90037B   25294.26426360  .00010878  00000+0  38989-3 0  9998
2 20580  28.4689 269.3969 0002100  16.8790 343.1874 15.27051558751969
SL-16 R/B               
1 20625U 90046B   25295.14015054  .00000366  00000+0  21331-3 0  9994
2 20625  70.9990 228.8814 0013506 163.6535 196.5026 14.14987341828793
COSMOS 2084             
1 20663U 90055A   25295.13356512  .00005450  00000+0  39429-3 0  9998
2 20663  62.7893  87.7698 0040581 168.5896 191.6134 15.04523286915466
SL-6 R/B(2)             
1 20666U 90055D   25295.20157888  .00003339  00000+0  26314-3 0  9997
2 20666  62.7859   4.4839 0010843 260.6468  99.3406 15.02703238917374
SL-8 R/B                
1 20775U 90078B   25295.16921698  .00025429  00000+0  79085-3 0  9993
2 20775  82.9100  15.3507 0384403 118.0394 246.0263 14.83427636788721
SL-8 R/B                
1 21088U 91006B   25295.03392992  .00000180  00000+0  16559-3 0  9992
2 21088  82.9386 273.1808 0023852  65.1428 359.7214 13.77477454744984
OKEAN-3                 
1 21397U 91039A   25295.18227799  .00004548  00000+0  32988-3 0  9995
2 21397  82.5139 110.9320 0015734  82.6148 277.6865 15.03609438844216
COSMOS 2151             
1 21422U 91042A   25295.17551441  .00002996  00000+0  24226-3 0  9992
2 21422  82.4992 217.1729 0012925 159.0277 201.1480 14.99401975842432
SL-14 R/B               
1 21423U 91042B   25295.18795356  .00000629  00000+0  76919-4 0  9997
2 21423  82.4952 350.0675 0016481 341.3216  18.7391 14.81671998832567
ERS-1                   
1 21574U 91050A   25295.15567869  .00000522  00000+0  18220-3 0  9998
2 21574  98.7937 304.9113 0030960 252.7708 107.0089 14.39305586795802
ARIANE 40 R/B           
1 21610U 91050F   25295.11993913  .00000599  00000+0  19228-3 0  9991
2 21610  98.2243 347.3944 0004166 123.8422 236.3165 14.42748270799014
INTERCOSMOS 25          
1 21819U 91086A   25295.11442433  .00001324  00000+0  25365-3 0  9993
2 21819  82.6096  33.7674 1489075  55.6182 317.6839 12.11524799479902
SL-8 R/B                
1 21876U 92008B   25295.19441685  .00000118  00000+0  10531-3 0  9996
2 21876  82.9312  10.7794 0035294 159.5587 258.7321 13.75944535690371
SL-8 R/B                
1 21938U 92020B   25294.97709264  .00000041  00000+0  26804-4 0  9990
2 21938  82.9278 256.7571 0028309 327.7346  94.3427 13.75518829682068
USA 81                  
1 21949U 92023A   25295.19761924  .00000335  00000+0  11687-3 0  9999
2 21949  85.0115 211.2906 0002716  95.5670 264.5832 14.32298570 74963
COSMOS 2219             
1 22219U 92076A   25295.15560297  .00000303  00000+0  18371-3 0  9996
2 22219  71.0587 307.6633 0016409  47.7801 312.4711 14.14049147698794
SL-16 R/B               
1 22220U 92076B   25295.12387675 -.00000102  00000+0 -26692-4 0  9997
2 22220  70.9975 120.2568 0014840 301.1508 201.4144 14.16829481702207
COSMOS 2221             
1 22236U 92080A   25295.03402122  .00003279  00000+0  29384-3 0  9990
2 22236  82.5061  51.7914 0013340 300.9965  58.9945 14.95447952760068
SL-16 R/B               
1 22285U 92093B   25295.15399164 -.00000142  00000+0 -48487-4 0  9996
2 22285  71.0207 295.0841 0004006 194.4611 165.6398 14.15420081693555
COSMOS 2228             
1 22286U 92094A   25295.20673941  .00003314  00000+0  28931-3 0  9995
2 22286  82.5218   9.8261 0019246  51.5789 308.7157 14.96391585755347
SL-16 R/B               
1 22566U 93016B   25295.03928318  .00000156  00000+0  10455-3 0  9996
2 22566  71.0066 146.3871 0010186 187.3585 172.7390 14.15279425682551
COSMOS 2242             
1 22626U 93024A   25294.99750869  .00003218  00000+0  28546-3 0  9992
2 22626  82.5222  39.2762 0017535  54.9588 305.3276 14.95789219759653
SL-16 R/B               
1 22803U 93059B   25295.20700514  .00000318  00000+0  18126-3 0  9995
2 22803  70.9892 303.1551 0015135  56.8523 303.4050 14.17199198659919
ARIANE 40 R/B           
1 22830U 93061H   25295.15014139  .00000424  00000+0  17175-3 0  9994
2 22830  98.5139   1.6037 0010175 340.2260  19.8528 14.32744233674261
COSMOS 2278             
1 23087U 94023A   25295.18916014 -.00000159  00000+0 -58476-4 0  9991
2 23087  71.0510 104.8588 0011032 247.4333 112.5623 14.14332417625220
SL-16 R/B               
1 23088U 94023B   25294.94569714  .00000335  00000+0  19745-3 0  9995
2 23088  71.0019   2.2571 0002876 188.9586 171.1485 14.14985234626468
SL-16 R/B               
1 23343U 94074B   25295.06163602  .00000836  00000+0  11929-3 0  9997
2 23343  97.7273 326.4017 0005623 323.5847  90.6158 14.79201229666759
SL-16 R/B               
1 23405U 94077B   25295.19338545 -.00000148  00000+0 -51399-4 0  9997
2 23405  70.9816 283.8530 0003216 324.2611  35.8296 14.15540788596632
ARIANE 40+ R/B          
1 23561U 95021B   25295.16569177  .00000545  00000+0  18819-3 0  9992
2 23561  98.4711   3.3633 0006634 187.8025 226.4336 14.39635327599313
SL-16 R/B               
1 23705U 95058B   25295.19350223 -.00000077  00000+0 -14855-4 0  9994
2 23705  71.0182 111.0222 0013843 322.4152  37.6002 14.15467207548254
SL-16 R/B               
1 24298U 96051B   25295.14248654 -.00000098  00000+0 -26348-4 0  9998
2 24298  70.7576 108.4930 0016645 328.2263  31.7850 14.12393114502080
ORBVIEW 2 (SEASTAR)     
1 24883U 97037A   25295.05310008  .00000623  00000+0  23325-3 0  9999
2 24883  98.8434  90.8373 0003230 104.2245 255.9298 14.35357920488581
SL-16 R/B               
1 25400U 98043G   25295.08675249  .00000153  00000+0  82951-4 0  9996
2 25400  98.8029 242.6399 0010818  59.6083 300.6164 14.26005963419238
SL-16 R/B               
1 25407U 98045B   25295.13112961 -.00000124  00000+0 -38447-4 0  9999
2 25407  71.0082 112.9553 0009469 244.4989 115.5156 14.16161147407481
ISS (ZARYA)             
1 25544U 98067A   25295.00800236  .00014857  00000+0  27406-3 0  9998
2 25544  51.6346  38.5904 0004414 322.0877  37.9800 15.49333878534839
CZ-4B R/B               
1 25732U 99025C   25295.10528756  .00000151  00000+0  93565-4 0  9999
2 25732  98.6850 337.5188 0037533  25.0397  29.2431 14.18224751368529
OKEAN-O                 
1 25860U 99039A   25295.13990634  .00001313  00000+0  18030-3 0  9991
2 25860  97.9679 351.2707 0001913  84.1156 276.0274 14.80032711413894
SL-16 R/B               
1 25861U 99039B   25295.11741353  .00001044  00000+0  13994-3 0  9997
2 25861  98.0204 349.2463 0014594 352.4527   7.6463 14.81477081416344
DELTA 2 R/B             
1 25876U 99041E   25295.08731455  .00001439  00000+0  27030-3 0  9998
2 25876  51.7635 134.5923 0504438 299.5101  55.6425 14.11230216343452
HELIOS 1B               
1 25977U 99064A   25295.19601826  .00002976  00000+0  33907-3 0  9992
2 25977  98.1766 188.3432 0002181 112.1327 248.0119 14.86970937664675
TERRA                   
1 25994U 99068A   25295.15986154  .00000836  00000+0  18008-3 0  9999
2 25994  97.9826 348.7155 0000960 248.0252 172.9042 14.60863624374855
SL-16 R/B               
1 26070U 00006B   25294.96936623 -.00000099  00000+0 -26173-4 0  9999
2 26070  71.0043  29.5097 0015464  25.2024 334.9850 14.15793524328926
TITAN 4B R/B            
1 26474U 00047B   25295.15782899  .00007088  00000+0  45518-3 0  9994
2 26474  67.9901  69.6593 0044210 203.1350 156.7809 15.08187915372014
ENVISAT                 
1 27386U 02009A   25295.16252899  .00000248  00000+0  94098-4 0  9999
2 27386  98.3508 247.2344 0001345  87.1493 282.7976 14.38970405239255
IDEFIX & ARIANE 42P R/B 
1 27422U 02021B   25294.83870391  .00000540  00000+0  22214-3 0  9995
2 27422  98.5700 230.2266 0010786 233.9564 126.0620 14.30893323224161
AQUA                    
1 27424U 02022A   25295.15728520  .00001905  00000+0  39298-3 0  9996
2 27424  98.3952 255.2272 0001632  56.6696  73.3418 14.61623136248498
CZ-4B R/B               
1 27432U 02024C   25295.15095667  .00000109  00000+0  78911-4 0  9997
2 27432  98.9080 344.0821 0051002  57.1251   5.5547 14.14512593209658
MIDORI II (ADEOS-II)    
1 27597U 02056A   25294.83802235  .00000528  00000+0  22606-3 0  9999
2 27597  98.7542 247.5466 0002042  64.0682 296.0710 14.29151657190461
H-2A R/B                
1 27601U 02056E   25295.16427655  .00000488  00000+0  18611-3 0  9997
2 27601  98.2978 255.9977 0069532 213.6765 158.0641 14.33621813194269
CZ-4B R/B               
1 28059U 03049C   25295.22084631  .00000781  00000+0  19125-3 0  9995
2 28059  98.6748 279.8487 0047249 295.0232  64.6061 14.54834472166460
CZ-2C R/B               
1 28222U 04012C   25295.13537875  .00039717  00000+0  67530-3 0  9995
2 28222  97.7506 343.6573 0021201  98.7044 261.6610 15.51079152182718
SL-16 R/B               
1 28353U 04021B   25295.07127016 -.00000172  00000+0 -64961-4 0  9996
2 28353  71.0002 163.3925 0007498 257.5587 102.4697 14.14574103103237
